OBJECT_NAME,OBJECT_ID,EPOCH,MEAN_MOTION,ECCENTRICITY,INCLINATION,RA_OF_ASC_NODE,ARG_OF_PERICENTER,MEAN_ANOMALY,EPHEMERIS_TYPE,CLASSIFICATION_TYPE,NORAD_CAT_ID,ELEMENT_SET_NO,REV_AT_EPOCH,BSTAR,MEAN_MOTION_DOT,MEAN_MOTION_DDOT
STARLINK-1727,2020-062L,2026-03-09T12:00:01.999296,15.68639872,.0003939,53.0432,337.1419,313.9108,6.0762,0,U,46335,999,597,.10154E-2,.118866E-2,0
STARLINK-11117 [DTC],2024-091J,2026-03-09T13:17:20.494752,15.69704614,.000106,53.1576,206.8111,58.1354,301.9767,0,U,59761,999,10549,-.20612E-5,-.838E-5,0
